[{"OBJECT_NAME":"ONEWEB-0213","OBJECT_ID":"2021-045Z","EPOCH":"2026-03-09T19:49:21.942624","MEAN_MOTION":13.15548944,"ECCENTRICITY":0.00016514,"INCLINATION":87.8948,"RA_OF_ASC_NODE":279.0263,"ARG_OF_PERICENTER":100.3738,"MEAN_ANOMALY":259.7578,"EPHEMERIS_TYPE":0,"CLASSIFICATION_TYPE":"U","NORAD_CAT_ID":48790,"ELEMENT_SET_NO":999,"REV_AT_EPOCH":23137,"BSTAR":-1.66796e-5,"MEAN_MOTION_DOT":7.0e-8,"MEAN_MOTION_DDOT":0},{"OBJECT_NAME":"SCOUT G-1 DEB","OBJECT_ID":"1985-066K","EPOCH":"2026-02-22T20:08:41.184384","MEAN_MOTION":13.42499331,"ECCENTRICITY":0.01547318,"INCLINATION":90.1663,"RA_OF_ASC_NODE":86.9703,"ARG_OF_PERICENTER":168.0375,"MEAN_ANOMALY":192.4516,"EPHEMERIS_TYPE":0,"CLASSIFICATION_TYPE":"U","NORAD_CAT_ID":44571,"ELEMENT_SET_NO":999,"REV_AT_EPOCH":64327,"BSTAR":0.0012483825,"MEAN_MOTION_DOT":7.67e-6,"MEAN_MOTION_DDOT":0}]
